[{"OBJECT_NAME":"STARLINK-4067","OBJECT_ID":"2022-053N","EPOCH":"2025-12-22T15:04:42.027744","MEAN_MOTION":15.08835831,"ECCENTRICITY":7.901e-5,"INCLINATION":53.2169,"RA_OF_ASC_NODE":140.0597,"ARG_OF_PERICENTER":43.2978,"MEAN_ANOMALY":316.8076,"EPHEMERIS_TYPE":0,"CLASSIFICATION_TYPE":"U","NORAD_CAT_ID":52668,"ELEMENT_SET_NO":999,"REV_AT_EPOCH":19941,"BSTAR":-3.254245e-5,"MEAN_MOTION_DOT":-8.05e-6,"MEAN_MOTION_DDOT":0},{"OBJECT_NAME":"STARLINK-3972","OBJECT_ID":"2022-053P","EPOCH":"2025-12-22T19:24:21.323232","MEAN_MOTION":15.08847776,"ECCENTRICITY":0.00012979,"INCLINATION":53.2173,"RA_OF_ASC_NODE":139.252,"ARG_OF_PERICENTER":86.2492,"MEAN_ANOMALY":273.8648,"EPHEMERIS_TYPE":0,"CLASSIFICATION_TYPE":"U","NORAD_CAT_ID":52669,"ELEMENT_SET_NO":999,"REV_AT_EPOCH":19943,"BSTAR":0.00011022861,"MEAN_MOTION_DOT":1.467e-5,"MEAN_MOTION_DDOT":0},{"OBJECT_NAME":"STARLINK-4075","OBJECT_ID":"2022-053Q","EPOCH":"2025-12-23T05:28:29.328672","MEAN_MOTION":15.08830579,"ECCENTRICITY":0.00012727,"INCLINATION":53.2172,"RA_OF_ASC_NODE":137.4348,"ARG_OF_PERICENTER":91.5642,"MEAN_ANOMALY":268.5496,"EPHEMERIS_TYPE":0,"CLASSIFICATION_TYPE":"U","NORAD_CAT_ID":52670,"ELEMENT_SET_NO":999,"REV_AT_EPOCH":19950,"BSTAR":2.0077293e-5,"MEAN_MOTION_DOT":3.2e-7,"MEAN_MOTION_DDOT":0},{"OBJECT_NAME":"STARLINK-4071","OBJECT_ID":"2022-053R","EPOCH":"2025-12-23T03:15:59.373504","MEAN_MOTION":15.08830785,"ECCENTRICITY":0.0001113,"INCLINATION":53.2166,"RA_OF_ASC_NODE":137.7829,"ARG_OF_PERICENTER":85.3568,"MEAN_ANOMALY":274.7552,"EPHEMERIS_TYPE":0,"CLASSIFICATION_TYPE":"U","NORAD_CAT_ID":52671,"ELEMENT_SET_NO":999,"REV_AT_EPOCH":19948,"BSTAR":0.00010780062,"MEAN_MOTION_DOT":1.428e-5,"MEAN_MOTION_DDOT":0},{"OBJECT_NAME":"STARLINK-4073","OBJECT_ID":"2022-053S","EPOCH":"2025-12-22T16:24:10.901664","MEAN_MOTION":15.08841362,"ECCENTRICITY":0.00014146,"INCLINATION":53.2177,"RA_OF_ASC_NODE":139.8125,"ARG_OF_PERICENTER":91.2677,"MEAN_ANOMALY":268.8477,"EPHEMERIS_TYPE":0,"CLASSIFICATION_TYPE":"U","NORAD_CAT_ID":52672,"ELEMENT_SET_NO":999,"REV_AT_EPOCH":19941,"BSTAR":3.3452029e-5,"MEAN_MOTION_DOT":2.45e-6,"MEAN_MOTION_DDOT":0},{"OBJECT_NAME":"STARLINK-3976","OBJECT_ID":"2022-053T","EPOCH":"2025-12-23T03:05:24.784512","MEAN_MOTION":15.08836373,"ECCENTRICITY":0.00014827,"INCLINATION":53.2171,"RA_OF_ASC_NODE":137.8163,"ARG_OF_PERICENTER":87.4864,"MEAN_ANOMALY":272.6297,"EPHEMERIS_TYPE":0,"CLASSIFICATION_TYPE":"U","NORAD_CAT_ID":52673,"ELEMENT_SET_NO":999,"REV_AT_EPOCH":19948,"BSTAR":0.000125148,"MEAN_MOTION_DOT":1.704e-5,"MEAN_MOTION_DDOT":0},{"OBJECT_NAME":"STARLINK-3936","OBJECT_ID":"2022-053U","EPOCH":"2025-12-22T19:29:39.117120","MEAN_MOTION":15.08843178,"ECCENTRICITY":0.00014299,"INCLINATION":53.216,"RA_OF_ASC_NODE":139.234,"ARG_OF_PERICENTER":93.3756,"MEAN_ANOMALY":266.74,"EPHEMERIS_TYPE":0,"CLASSIFICATION_TYPE":"U","NORAD_CAT_ID":52674,"ELEMENT_SET_NO":999,"REV_AT_EPOCH":19944,"BSTAR":5.5064244e-5,"MEAN_MOTION_DOT":5.89e-6,"MEAN_MOTION_DDOT":0},{"OBJECT_NAME":"STARLINK-3934","OBJECT_ID":"2022-053V","EPOCH":"2025-12-23T01:26:01.649184","MEAN_MOTION":15.08839448,"ECCENTRICITY":0.00012677,"INCLINATION":53.217,"RA_OF_ASC_NODE":128.1237,"ARG_OF_PERICENTER":86.2551,"MEAN_ANOMALY":273.8587,"EPHEMERIS_TYPE":0,"CLASSIFICATION_TYPE":"U","NORAD_CAT_ID":52675,"ELEMENT_SET_NO":999,"REV_AT_EPOCH":19960,"BSTAR":4.2102118e-5,"MEAN_MOTION_DOT":3.82e-6,"MEAN_MOTION_DDOT":0},{"OBJECT_NAME":"STARLINK-4006","OBJECT_ID":"2022-053W","EPOCH":"2025-12-23T03:10:42.898944","MEAN_MOTION":15.08849599,"ECCENTRICITY":0.00014955,"INCLINATION":53.216,"RA_OF_ASC_NODE":137.7996,"ARG_OF_PERICENTER":96.2736,"MEAN_ANOMALY":263.8427,"EPHEMERIS_TYPE":0,"CLASSIFICATION_TYPE":"U","NORAD_CAT_ID":52676,"ELEMENT_SET_NO":999,"REV_AT_EPOCH":19948,"BSTAR":0.00030363095,"MEAN_MOTION_DOT":4.549e-5,"MEAN_MOTION_DDOT":0},{"OBJECT_NAME":"STARLINK-4074","OBJECT_ID":"2022-053Y","EPOCH":"2025-12-23T01:41:56.646528","MEAN_MOTION":15.08838214,"ECCENTRICITY":0.00012908,"INCLINATION":53.218,"RA_OF_ASC_NODE":128.1797,"ARG_OF_PERICENTER":81.7772,"MEAN_ANOMALY":278.3367,"EPHEMERIS_TYPE":0,"CLASSIFICATION_TYPE":"U","NORAD_CAT_ID":52678,"ELEMENT_SET_NO":999,"REV_AT_EPOCH":19960,"BSTAR":4.9035867e-5,"MEAN_MOTION_DOT":4.93e-6,"MEAN_MOTION_DDOT":0},{"OBJECT_NAME":"STARLINK-4031","OBJECT_ID":"2022-053Z","EPOCH":"2025-12-22T15:27:12.826944","MEAN_MOTION":15.08845535,"ECCENTRICITY":0.00014027,"INCLINATION":53.218,"RA_OF_ASC_NODE":129.9925,"ARG_OF_PERICENTER":66.6311,"MEAN_ANOMALY":293.4828,"EPHEMERIS_TYPE":0,"CLASSIFICATION_TYPE":"U","NORAD_CAT_ID":52679,"ELEMENT_SET_NO":999,"REV_AT_EPOCH":19950,"BSTAR":4.3042474e-5,"MEAN_MOTION_DOT":3.97e-6,"MEAN_MOTION_DDOT":0},{"OBJECT_NAME":"STARLINK-3774","OBJECT_ID":"2022-053AA","EPOCH":"2025-12-22T15:16:34.751712","MEAN_MOTION":15.08844762,"ECCENTRICITY":0.00013215,"INCLINATION":53.2173,"RA_OF_ASC_NODE":129.7947,"ARG_OF_PERICENTER":68.6558,"MEAN_ANOMALY":291.4575,"EPHEMERIS_TYPE":0,"CLASSIFICATION_TYPE":"U","NORAD_CAT_ID":52680,"ELEMENT_SET_NO":999,"REV_AT_EPOCH":19952,"BSTAR":-1.7637937e-5,"MEAN_MOTION_DOT":-5.69e-6,"MEAN_MOTION_DDOT":0},{"OBJECT_NAME":"STARLINK-4068","OBJECT_ID":"2022-053AB","EPOCH":"2025-12-22T15:21:55.222272","MEAN_MOTION":15.08842935,"ECCENTRICITY":0.0001553,"INCLINATION":53.2185,"RA_OF_ASC_NODE":130.0077,"ARG_OF_PERICENTER":89.613,"MEAN_ANOMALY":270.504,"EPHEMERIS_TYPE":0,"CLASSIFICATION_TYPE":"U","NORAD_CAT_ID":52681,"ELEMENT_SET_NO":999,"REV_AT_EPOCH":19950,"BSTAR":3.046412e-6,"MEAN_MOTION_DOT":-2.4e-6,"MEAN_MOTION_DDOT":0},{"OBJECT_NAME":"STARLINK-4017","OBJECT_ID":"2022-053AC","EPOCH":"2025-12-22T15:37:48.503712","MEAN_MOTION":15.08843869,"ECCENTRICITY":7.863e-5,"INCLINATION":53.2156,"RA_OF_ASC_NODE":129.9582,"ARG_OF_PERICENTER":92.2203,"MEAN_ANOMALY":267.8879,"EPHEMERIS_TYPE":0,"CLASSIFICATION_TYPE":"U","NORAD_CAT_ID":52682,"ELEMENT_SET_NO":999,"REV_AT_EPOCH":19952,"BSTAR":6.2748167e-5,"MEAN_MOTION_DOT":7.11e-6,"MEAN_MOTION_DDOT":0},{"OBJECT_NAME":"STARLINK-4014","OBJECT_ID":"2022-053AE","EPOCH":"2025-12-22T15:32:31.350048","MEAN_MOTION":15.08852324,"ECCENTRICITY":0.00012888,"INCLINATION":53.2171,"RA_OF_ASC_NODE":129.9742,"ARG_OF_PERICENTER":90.8615,"MEAN_ANOMALY":269.2525,"EPHEMERIS_TYPE":0,"CLASSIFICATION_TYPE":"U","NORAD_CAT_ID":52684,"ELEMENT_SET_NO":999,"REV_AT_EPOCH":19950,"BSTAR":7.4946511e-5,"MEAN_MOTION_DOT":9.05e-6,"MEAN_MOTION_DDOT":0},{"OBJECT_NAME":"STARLINK-4029","OBJECT_ID":"2022-053AF","EPOCH":"2025-12-23T03:43:49.222848","MEAN_MOTION":15.08845871,"ECCENTRICITY":9.554e-5,"INCLINATION":53.2166,"RA_OF_ASC_NODE":127.6981,"ARG_OF_PERICENTER":102.4581,"MEAN_ANOMALY":257.6518,"EPHEMERIS_TYPE":0,"CLASSIFICATION_TYPE":"U","NORAD_CAT_ID":52685,"ELEMENT_SET_NO":999,"REV_AT_EPOCH":19956,"BSTAR":0.00018418907,"MEAN_MOTION_DOT":2.645e-5,"MEAN_MOTION_DDOT":0},{"OBJECT_NAME":"STARLINK-4005","OBJECT_ID":"2022-053AG","EPOCH":"2025-12-22T15:55:08.149728","MEAN_MOTION":15.08841736,"ECCENTRICITY":0.00015607,"INCLINATION":53.2177,"RA_OF_ASC_NODE":130.1819,"ARG_OF_PERICENTER":66.7016,"MEAN_ANOMALY":293.414,"EPHEMERIS_TYPE":0,"CLASSIFICATION_TYPE":"U","NORAD_CAT_ID":52686,"ELEMENT_SET_NO":999,"REV_AT_EPOCH":19949,"BSTAR":2.6677782e-5,"MEAN_MOTION_DOT":1.37e-6,"MEAN_MOTION_DDOT":0},{"OBJECT_NAME":"STARLINK-3981","OBJECT_ID":"2022-053AH","EPOCH":"2025-12-22T18:06:13.154688","MEAN_MOTION":15.08833701,"ECCENTRICITY":0.00012758,"INCLINATION":53.2172,"RA_OF_ASC_NODE":129.4967,"ARG_OF_PERICENTER":85.2343,"MEAN_ANOMALY":274.8795,"EPHEMERIS_TYPE":0,"CLASSIFICATION_TYPE":"U","NORAD_CAT_ID":52687,"ELEMENT_SET_NO":999,"REV_AT_EPOCH":19950,"BSTAR":0.00011856049,"MEAN_MOTION_DOT":1.599e-5,"MEAN_MOTION_DDOT":0},{"OBJECT_NAME":"STARLINK-4032","OBJECT_ID":"2022-053AJ","EPOCH":"2025-12-22T19:36:16.405920","MEAN_MOTION":15.08832415,"ECCENTRICITY":0.0001182,"INCLINATION":53.2168,"RA_OF_ASC_NODE":129.0997,"ARG_OF_PERICENTER":68.7631,"MEAN_ANOMALY":291.3488,"EPHEMERIS_TYPE":0,"CLASSIFICATION_TYPE":"U","NORAD_CAT_ID":52688,"ELEMENT_SET_NO":999,"REV_AT_EPOCH":19951,"BSTAR":0.00010469368,"MEAN_MOTION_DOT":1.378e-5,"MEAN_MOTION_DDOT":0},{"OBJECT_NAME":"STARLINK-4078","OBJECT_ID":"2022-053AK","EPOCH":"2025-12-22T11:44:00.795840","MEAN_MOTION":15.43249852,"ECCENTRICITY":8.874e-5,"INCLINATION":53.2157,"RA_OF_ASC_NODE":91.6091,"ARG_OF_PERICENTER":327.4863,"MEAN_ANOMALY":32.609,"EPHEMERIS_TYPE":0,"CLASSIFICATION_TYPE":"U","NORAD_CAT_ID":52689,"ELEMENT_SET_NO":999,"REV_AT_EPOCH":20005,"BSTAR":0.00099471096,"MEAN_MOTION_DOT":0.00044742,"MEAN_MOTION_DDOT":0},{"OBJECT_NAME":"STARLINK-4035","OBJECT_ID":"2022-053AL","EPOCH":"2025-12-23T02:13:43.510944","MEAN_MOTION":15.08838211,"ECCENTRICITY":0.0001361,"INCLINATION":53.2176,"RA_OF_ASC_NODE":127.9776,"ARG_OF_PERICENTER":82.7454,"MEAN_ANOMALY":277.3692,"EPHEMERIS_TYPE":0,"CLASSIFICATION_TYPE":"U","NORAD_CAT_ID":52690,"ELEMENT_SET_NO":999,"REV_AT_EPOCH":19955,"BSTAR":4.370253e-5,"MEAN_MOTION_DOT":4.08e-6,"MEAN_MOTION_DDOT":0},{"OBJECT_NAME":"STARLINK-3993","OBJECT_ID":"2022-053AN","EPOCH":"2025-12-22T15:48:22.036896","MEAN_MOTION":15.08839596,"ECCENTRICITY":0.00012121,"INCLINATION":53.2181,"RA_OF_ASC_NODE":129.653,"ARG_OF_PERICENTER":93.4209,"MEAN_ANOMALY":266.6922,"EPHEMERIS_TYPE":0,"CLASSIFICATION_TYPE":"U","NORAD_CAT_ID":52692,"ELEMENT_SET_NO":999,"REV_AT_EPOCH":19952,"BSTAR":-1.3869261e-5,"MEAN_MOTION_DOT":-5.09e-6,"MEAN_MOTION_DDOT":0},{"OBJECT_NAME":"STARLINK-3946","OBJECT_ID":"2022-053AP","EPOCH":"2025-12-23T01:31:19.681536","MEAN_MOTION":15.08837817,"ECCENTRICITY":0.00017186,"INCLINATION":53.2186,"RA_OF_ASC_NODE":128.1056,"ARG_OF_PERICENTER":90.3176,"MEAN_ANOMALY":269.8013,"EPHEMERIS_TYPE":0,"CLASSIFICATION_TYPE":"U","NORAD_CAT_ID":52693,"ELEMENT_SET_NO":999,"REV_AT_EPOCH":19958,"BSTAR":8.1694677e-5,"MEAN_MOTION_DOT":1.012e-5,"MEAN_MOTION_DDOT":0}]
